{"type": "FeatureCollection", "features": [ {"type": "Feature", "properties": {"norad_id": 28649, "name": "IRS-P5 (CARTOSAT-1)", "group": "resource", "lat": 79.82874859392932, "lon": -42.63958786948076, "alt_km": 588.4322624904116, "timestamp": "2025-12-04T05:42:43.034339+00:00", "meta": {"OBJECT_NAME": "IRS-P5 (CARTOSAT-1)", "OBJECT_ID": "2005-017A", "EPOCH": "2025-12-03T19:40:19.815456", "MEAN_MOTION": 14.90354061, "ECCENTRICITY": 0.00017406, "INCLINATION": 97.55, "RA_OF_ASC_NODE": 4.6288, "ARG_OF_PERICENTER": 51.5682, "MEAN_ANOMALY": 308.5693, "EPHEMERIS_TYPE": 0, "CLASSIFICATION_TYPE": "U", "NORAD_CAT_ID": 28649, "ELEMENT_SET_NO": 999, "REV_AT_EPOCH": 11471, "BSTAR": 0.00032668963, "MEAN_MOTION_DOT": 3.126e-05, "MEAN_MOTION_DDOT": 0}, "tle": {"line1": "1 28649U 05017A   25337.81967379  .00003126  00000+0  32669-3 0  9992", "line2": "2 28649  97.5500   4.6288 0001740  51.5682 308.5693 14.90354061114715"}}, "geometry": {"type": "Point", "coordinates": [-42.63958786948076, 79.82874859392932]}}, {"type": "Feature", "properties": {"norad_id": 28893, "name": "SINAH 1", "group": "resource", "lat": 15.9533023449789, "lon": -70.84724547141083, "alt_km": 670.6667768207908, "timestamp": "2025-12-04T05:42:43.034350+00:00", "meta": {"OBJECT_NAME": "SINAH 1", "OBJECT_ID": "2005-043D", "EPOCH": "2025-12-03T22:24:18.099648", "MEAN_MOTION": 14.63947014, "ECCENTRICITY": 0.00148573, "INCLINATION": 98.26, "RA_OF_ASC_NODE": 106.4676, "ARG_OF_PERICENTER": 163.4237, "MEAN_ANOMALY": 196.7454, "EPHEMERIS_TYPE": 0, "CLASSIFICATION_TYPE": "U", "NORAD_CAT_ID": 28893, "ELEMENT_SET_NO": 999, "REV_AT_EPOCH": 7195, "BSTAR": 0.00019575721, "MEAN_MOTION_DOT": 9.77e-06, "MEAN_MOTION_DDOT": 0}, "tle": {"line1": "1 28893U 05043D   25337.93354282  .00000977  00000+0  19576-3 0  9991", "line2": "2 28893  98.2600 106.4676 0014857 163.4237 196.7454 14.63947014 71955"}}, "geometry": {"type": "Point", "coordinates": [-70.84724547141083, 15.9533023449789]}}, {"type": "Feature", "properties": {"norad_id": 29079, "name": "EROS B", "group": "resource", "lat": -80.22244049151149, "lon": 142.92791799445126, "alt_km": 379.5727621123424, "timestamp": "2025-12-04T05:42:43.034381+00:00", "meta": {"OBJECT_NAME": "EROS B", "OBJECT_ID": "2006-014A", "EPOCH": "2025-12-03T22:23:42.788832", "MEAN_MOTION": 15.64841209, "ECCENTRICITY": 0.0002134, "INCLINATION": 97.349, "RA_OF_ASC_NODE": 94.1097, "ARG_OF_PERICENTER": 237.1337, "MEAN_ANOMALY": 122.9717, "EPHEMERIS_TYPE": 0, "CLASSIFICATION_TYPE": "U", "NORAD_CAT_ID": 29079, "ELEMENT_SET_NO": 999, "REV_AT_EPOCH": 8942, "BSTAR": 0.0021031841, "MEAN_MOTION_DOT": 0.00209725, "MEAN_MOTION_DDOT": 0}, "tle": {"line1": "1 29079U 06014A   25337.93313413  .00209725  00000+0  21032-2 0  9999", "line2": "2 29079  97.3490  94.1097 0002134 237.1337 122.9717 15.64841209 89429"}}, "geometry": {"type": "Point", "coordinates": [142.92791799445126, -80.22244049151149]}}, {"type": "Feature", "properties": {"norad_id": 29228, "name": "RESURS-DK 1", "group": "resource", "lat": 36.663127645973006, "lon": 139.59650987210122, "alt_km": 530.4995178921845, "timestamp": "2025-12-04T05:42:43.034396+00:00", "meta": {"OBJECT_NAME": "RESURS-DK 1", "OBJECT_ID": "2006-021A", "EPOCH": "2025-12-03T20:00:42.744384", "MEAN_MOTION": 15.12079711, "ECCENTRICITY": 0.00078238, "INCLINATION": 69.9329, "RA_OF_ASC_NODE": 124.8507, "ARG_OF_PERICENTER": 265.1506, "MEAN_ANOMALY": 94.8767, "EPHEMERIS_TYPE": 0, "CLASSIFICATION_TYPE": "U", "NORAD_CAT_ID": 29228, "ELEMENT_SET_NO": 999, "REV_AT_EPOCH": 7303, "BSTAR": 0.00033225758, "MEAN_MOTION_DOT": 5.63e-05, "MEAN_MOTION_DDOT": 0}, "tle": {"line1": "1 29228U 06021A   25337.83382806  .00005630  00000+0  33226-3 0  9992", "line2": "2 29228  69.9329 124.8507 0007823 265.1506  94.8767 15.12079711 73033"}}, "geometry": {"type": "Point", "coordinates": [139.59650987210122, 36.663127645973006]}}, {"type": "Feature", "properties": {"norad_id": 29268, "name": "ARIRANG-2 (KOMPSAT-2)", "group": "resource", "lat": 52.631643749153156, "lon": 156.74931953762984, "alt_km": 671.4466729009764, "timestamp": "2025-12-04T05:42:43.034408+00:00", "meta": {"OBJECT_NAME": "ARIRANG-2 (KOMPSAT-2)", "OBJECT_ID": "2006-031A", "EPOCH": "2025-12-03T23:28:45.024096", "MEAN_MOTION": 14.64480919, "ECCENTRICITY": 0.00139665, "INCLINATION": 97.8264, "RA_OF_ASC_NODE": 166.8783, "ARG_OF_PERICENTER": 338.1481, "MEAN_ANOMALY": 146.7616, "EPHEMERIS_TYPE": 0, "CLASSIFICATION_TYPE": "U", "NORAD_CAT_ID": 29268, "ELEMENT_SET_NO": 999, "REV_AT_EPOCH": 3290, "BSTAR": 0.00012787077, "MEAN_MOTION_DOT": 6.33e-06, "MEAN_MOTION_DDOT": 0}, "tle": {"line1": "1 29268U 06031A   25337.97829889  .00000633  00000+0  12787-3 0  9996", "line2": "2 29268  97.8264 166.8783 0013966 338.1481 146.7616 14.64480919 32908"}}, "geometry": {"type": "Point", "coordinates": [156.74931953762984, 52.631643749153156]}}, {"type": "Feature", "properties": {"norad_id": 29709, "name": "LAPAN-TUBSAT", "group": "resource", "lat": 59.36399908842985, "lon": -45.738994204893125, "alt_km": 598.392183879725, "timestamp": "2025-12-04T05:42:43.034419+00:00", "meta": {"OBJECT_NAME": "LAPAN-TUBSAT", "OBJECT_ID": "2007-001A", "EPOCH": "2025-12-03T22:58:32.596608", "MEAN_MOTION": 14.85648735, "ECCENTRICITY": 0.00136008, "INCLINATION": 98.1252, "RA_OF_ASC_NODE": 327.9336, "ARG_OF_PERICENTER": 100.1495, "MEAN_ANOMALY": 260.1254, "EPHEMERIS_TYPE": 0, "CLASSIFICATION_TYPE": "U", "NORAD_CAT_ID": 29709, "ELEMENT_SET_NO": 999, "REV_AT_EPOCH": 2216, "BSTAR": 0.00012671571, "MEAN_MOTION_DOT": 1.042e-05, "MEAN_MOTION_DDOT": 0}, "tle": {"line1": "1 29709U 07001A   25337.95732172  .00001042  00000+0  12672-3 0  9998", "line2": "2 29709  98.1252 327.9336 0013600 100.1495 260.1254 14.85648735 22161"}}, "geometry": {"type": "Point", "coordinates": [-45.738994204893125, 59.36399908842985]}}, {"type": "Feature", "properties": {"norad_id": 31113, "name": "HAIYANG-1B", "group": "resource", "lat": 2.337613376122473, "lon": 143.21038497095122, "alt_km": 795.7326734444587, "timestamp": "2025-12-04T05:42:43.034429+00:00", "meta": {"OBJECT_NAME": "HAIYANG-1B", "OBJECT_ID": "2007-010A", "EPOCH": "2025-12-03T22:10:25.439520", "MEAN_MOTION": 14.3096051, "ECCENTRICITY": 0.00145762, "INCLINATION": 98.3307, "RA_OF_ASC_NODE": 322.5666, "ARG_OF_PERICENTER": 62.3758, "MEAN_ANOMALY": 297.8904, "EPHEMERIS_TYPE": 0, "CLASSIFICATION_TYPE": "U", "NORAD_CAT_ID": 31113, "ELEMENT_SET_NO": 999, "REV_AT_EPOCH": 97270, "BSTAR": 0.00011316257, "MEAN_MOTION_DOT": 2.56e-06, "MEAN_MOTION_DDOT": 0}, "tle": {"line1": "1 31113U 07010A   25337.92390555  .00000256  00000+0  11316-3 0  9992", "line2": "2 31113  98.3307 322.5666 0014576  62.3758 297.8904 14.30960510972708"}}, "geometry": {"type": "Point", "coordinates": [143.21038497095122, 2.337613376122473]}}, {"type": "Feature", "properties": {"norad_id": 31598, "name": "COSMO-SKYMED 1", "group": "resource", "lat": 67.99860897010326, "lon": 143.52512775498593, "alt_km": 572.7358325324458, "timestamp": "2025-12-04T05:42:43.034453+00:00", "meta": {"OBJECT_NAME": "COSMO-SKYMED 1", "OBJECT_ID": "2007-023A", "EPOCH": "2025-12-03T22:58:49.282176", "MEAN_MOTION": 14.95663454, "ECCENTRICITY": 0.00013962, "INCLINATION": 97.884, "RA_OF_ASC_NODE": 163.2998, "ARG_OF_PERICENTER": 80.2303, "MEAN_ANOMALY": 279.9075, "EPHEMERIS_TYPE": 0, "CLASSIFICATION_TYPE": "U", "NORAD_CAT_ID": 31598, "ELEMENT_SET_NO": 999, "REV_AT_EPOCH": 59, "BSTAR": 0.00059473811, "MEAN_MOTION_DOT": 6.558e-05, "MEAN_MOTION_DDOT": 0}, "tle": {"line1": "1 31598U 07023A   25337.95751484  .00006558  00000+0  59474-3 0  9996", "line2": "2 31598  97.8840 163.2998 0001396  80.2303 279.9075 14.95663454   597"}}, "geometry": {"type": "Point", "coordinates": [143.52512775498593, 67.99860897010326]}}, {"type": "Feature", "properties": {"norad_id": 31698, "name": "TERRASAR-X", "group": "resource", "lat": 82.5291998420266, "lon": -101.9380765778343, "alt_km": 499.5270592065581, "timestamp": "2025-12-04T05:42:43.034466+00:00", "meta": {"OBJECT_NAME": "TERRASAR-X", "OBJECT_ID": "2007-026A", "EPOCH": "2025-12-03T15:05:32.684928", "MEAN_MOTION": 15.19160309, "ECCENTRICITY": 0.0001999, "INCLINATION": 97.4447, "RA_OF_ASC_NODE": 343.1435, "ARG_OF_PERICENTER": 87.129, "MEAN_ANOMALY": 273.0173, "EPHEMERIS_TYPE": 0, "CLASSIFICATION_TYPE": "U", "NORAD_CAT_ID": 31698, "ELEMENT_SET_NO": 999, "REV_AT_EPOCH": 2353, "BSTAR": 0.00010298495, "MEAN_MOTION_DOT": 2.097e-05, "MEAN_MOTION_DDOT": 0}, "tle": {"line1": "1 31698U 07026A   25337.62885052  .00002097  00000+0  10298-3 0  9998", "line2": "2 31698  97.4447 343.1435 0001999  87.1290 273.0173 15.19160309 23533"}}, "geometry": {"type": "Point", "coordinates": [-101.9380765778343, 82.5291998420266]}}, {"type": "Feature", "properties": {"norad_id": 32060, "name": "WORLDVIEW-1 (WV-1)", "group": "resource", "lat": -73.51545003179878, "lon": 121.83231792071057, "alt_km": 500.23309638878527, "timestamp": "2025-12-04T05:42:43.034476+00:00", "meta": {"OBJECT_NAME": "WORLDVIEW-1 (WV-1)", "OBJECT_ID": "2007-041A", "EPOCH": "2025-12-03T22:09:53.515584", "MEAN_MOTION": 15.24458131, "ECCENTRICITY": 7.65e-05, "INCLINATION": 97.3841, "RA_OF_ASC_NODE": 95.5304, "ARG_OF_PERICENTER": 94.8548, "MEAN_ANOMALY": 265.2777, "EPHEMERIS_TYPE": 0, "CLASSIFICATION_TYPE": "U", "NORAD_CAT_ID": 32060, "ELEMENT_SET_NO": 999, "REV_AT_EPOCH": 1313, "BSTAR": 0.0006148464, "MEAN_MOTION_DOT": 0.00015043, "MEAN_MOTION_DDOT": 0}, "tle": {"line1": "1 32060U 07041A   25337.92353606  .00015043  00000+0  61485-3 0  9996", "line2": "2 32060  97.3841  95.5304 0000765  94.8548 265.2777 15.24458131 13135"}}, "geometry": {"type": "Point", "coordinates": [121.83231792071057, -73.51545003179878]}}]}